ONEWEB-0271             
1 48989U 21060Y   24177.57969615 -.00000037  00000+0 -12980-3 0  9990
2 48989  87.9099  12.4202 0002184  82.3725 277.7654 13.16596967144713
ONEWEB-0272             
1 48990U 21060Z   24177.60188681  .00000097  00000+0  21931-3 0  9992
2 48990  87.9100  12.4446 0002106  83.6379 276.4992 13.16594584144669
ONEWEB-0273             
1 48991U 21060AA  24177.54805075  .00000046  00000+0  85856-4 0  9990
2 48991  87.9100  12.4421 0001861  83.0935 277.0407 13.16595572144635
ONEWEB-0274             
1 48992U 21060AB  24177.49738938 -.00000036  00000+0 -12905-3 0  9993
2 48992  87.9107  12.4663 0002312  95.7271 264.4123 13.16595139144663
ONEWEB-0275             
1 48993U 21060AC  24177.48630815 -.00000032  00000+0 -11633-3 0  9991
2 48993  87.9099  12.4502 0001954  80.9946 279.1406 13.16595141144594
ONEWEB-0276             
1 48994U 21060AD  24177.59553955  .00000079  00000+0  17288-3 0  9994
2 48994  87.9098  12.4246 0001985  78.8695 281.2659 13.16594694145924
ONEWEB-0277             
1 48995U 21060AE  24177.60821764  .00000104  00000+0  23743-3 0  9995
2 48995  87.9100  12.4604 0002287  78.8825 281.2563 13.16595234145901
ONEWEB-0278             
1 48996U 21060AF  24177.59870134 -.00000112  00000+0 -32737-3 0  9993
2 48996  87.9092  12.4209 0001806  91.2923 268.8415 13.16600257144747
ONEWEB-0279             
1 48997U 21060AG  24177.60663804  .00000088  00000+0  19743-3 0  9992
2 48997  87.9100  12.4172 0002230  81.6414 278.4970 13.16594830144671
ONEWEB-0280             
1 48998U 21060AH  24177.54488828  .00000090  00000+0  20197-3 0  9995
2 48998  87.9101  12.4309 0001774  79.9474 280.1857 13.16595261144609
ONEWEB-0281             
1 48999U 21060AJ  24177.62722046  .00000038  00000+0  64611-4 0  9990
2 48999  87.9101  12.4163 0001929  94.2001 265.9350 13.16595453145991
ONEWEB-0282             
1 49000U 21060AK  24177.58130592 -.00000010  00000+0 -60258-4 0  9993
2 49000  87.9099  12.4421 0001999  76.2407 283.8946 13.16594922144657
ONEWEB-0283             
1 49001U 21060AL  24177.57022436 -.00000054  00000+0 -17580-3 0  9997
2 49001  87.9098  12.4507 0002102  81.1563 278.9806 13.16594658144664
ONEWEB-0284             
1 49002U 21060AM  24177.56389125 -.00000055  00000+0 -17627-3 0  9991
2 49002  87.9093  12.4350 0001830  81.2539 278.8800 13.16594511144646
ONEWEB-0285             
1 49075U 21075A   24177.39927249  .00000346  00000+0  92595-3 0  9991
2 49075  87.8947 134.3868 0002082  81.5981 278.5384 13.12441511140530
ONEWEB-0286             
1 49076U 21075B   24177.37076716 -.00000330  00000+0 -95280-3 0  9993
2 49076  87.8940 134.3954 0001822  89.1189 271.0148 13.12444725139887
ONEWEB-0287             
1 49077U 21075C   24177.46973114 -.00001239  00000+0 -32246-2 0  9993
2 49077  87.9173 149.5408 0001869  75.8128 284.3211 13.17657045138585
ONEWEB-0288             
1 49078U 21075D   24177.43321491 -.00000115  00000+0 -35383-3 0  9994
2 49078  87.8940 134.3867 0001907  81.1745 278.9600 13.12443027140511
ONEWEB-0289             
1 49079U 21075E   24177.87846155  .00005231  00000+0  13438-1 0  9999
2 49079  87.9170 149.4887 0002378  84.7418 275.3985 13.17612951140185
ONEWEB-0290             
1 49080U 21075F   24177.48103425  .00000898  00000+0  22808-2 0  9990
2 49080  87.9170 149.5276 0001941  67.2479 292.8858 13.17642699138573
ONEWEB-0291             
1 49081U 21075G   24177.46489065 -.00003438  00000+0 -88895-2 0  9999
2 49081  87.9166 149.5522 0001809  83.7106 276.4232 13.17668250138560
ONEWEB-0293             
1 49082U 21075H   24177.41477587  .00003860  00000+0  99069-2 0  9993
2 49082  87.9168 149.5763 0001866  78.3444 281.7896 13.17623035138587
ONEWEB-0294             
1 49083U 21075J   24177.36346367 -.00000262  00000+0 -76308-3 0  9996
2 49083  87.8940 134.3999 0001614  63.6260 296.5034 13.12443707139896
ONEWEB-0295             
1 49084U 21075K   24177.41637798  .00004316  00000+0  11082-1 0  9992
2 49084  87.9175 149.5533 0001708  86.6015 273.5311 13.17623248138546
ONEWEB-0296             
1 49085U 21075L   24177.42024329  .00000305  00000+0  81274-3 0  9990
2 49085  87.8943 134.3895 0001297  74.2667 285.8605 13.12441710139901
ONEWEB-0297             
1 49086U 21075M   24177.37481750 -.00000359  00000+0 -10333-2 0  9998
2 49086  87.8950 134.4059 0002056  84.9460 275.1903 13.12443514140501
ONEWEB-0298             
1 49087U 21075N   24177.41961436  .00005308  00000+0  13637-1 0  9994
2 49087  87.9174 149.5706 0002034  87.9296 272.2069 13.17618707138571
ONEWEB-0299             
1 49088U 21075P   24177.87687319  .00005729  00000+0  14719-1 0  9999
2 49088  87.9173 149.4480 0002100  92.3008 267.8364 13.17625383139582
ONEWEB-0300             
1 49089U 21075Q   24177.36669479 -.00000551  00000+0 -15683-2 0  9993
2 49089  87.8941 134.3967 0002441  86.8733 273.2675 13.12442136140529
ONEWEB-0301             
1 49090U 21075R   24177.42673759  .00000126  00000+0  31551-3 0  9997
2 49090  87.8942 134.3881 0002348  84.5201 275.6196 13.12443082139891
ONEWEB-0302             
1 49091U 21075S   24177.41374623  .00000502  00000+0  13611-2 0  9999
2 49091  87.8943 134.3889 0001819  78.6625 281.4708 13.12447022139877
ONEWEB-0304             
1 49092U 21075T   24177.47134112 -.00000187  00000+0 -51521-3 0  9997
2 49092  87.9170 149.5461 0001736  85.0679 275.0651 13.17653091138532
ONEWEB-0305             
1 49093U 21075U   24177.46328034 -.00002733  00000+0 -70723-2 0  9998
2 49093  87.9168 149.5339 0001700 112.1344 247.9968 13.17665532138561
ONEWEB-0308             
1 49094U 21075V   24177.40725487  .00001250  00000+0  34376-2 0  9991
2 49094  87.8940 134.3903 0002174  82.2873 277.8502 13.12447277139889
ONEWEB-0309             
1 49095U 21075W   24177.46811380 -.00000499  00000+0 -13189-2 0  9991
2 49095  87.9167 149.5388 0001664  70.0577 290.0734 13.17655767138531
ONEWEB-0310             
1 49096U 21075X   24177.42187327  .00000216  00000+0  56520-3 0  9997
2 49096  87.8951 134.3954 0002015  76.7324 283.4029 13.12440948140519
ONEWEB-0311             
1 49097U 21075Y   24177.47457553  .00000059  00000+0  11846-3 0  9991
2 49097  87.9172 149.5377 0001799  98.8434 261.2902 13.17649360138580
ONEWEB-0312             
1 49098U 21075Z   24177.48909364  .00003008  00000+0  77150-2 0  9991
2 49098  87.9171 149.5672 0001586  84.0417 276.0895 13.17629807138567
ONEWEB-0313             
1 49099U 21075AA  24177.46650722 -.00001510  00000+0 -39233-2 0  9999
2 49099  87.9174 149.5741 0001770  91.0399 269.0935 13.17659317138555
ONEWEB-0314             
1 49100U 21075AB  24177.46004625 -.00003606  00000+0 -93213-2 0  9993
2 49100  87.9168 149.5329 0001655  87.3794 272.7527 13.17670705138521
ONEWEB-0315             
1 49101U 21075AC  24177.39590150  .00000186  00000+0  48046-3 0  9992
2 49101  87.8940 134.3852 0002172  83.9068 276.2308 13.12444425140491
ONEWEB-0316             
1 49102U 21075AD  24177.34636085  .00000069  00000+0  14140-3 0  9994
2 49102  87.9150 119.1616 0001970  84.9537 275.1820 13.18685542142078
ONEWEB-0317             
1 49103U 21075AE  24177.38940604 -.00000224  00000+0 -65700-3 0  9997
2 49103  87.8943 134.3964 0002364  70.7048 289.4336 13.12443759140514
ONEWEB-0318             
1 49104U 21075AF  24177.34319290  .00000073  00000+0  15185-3 0  9997
2 49104  87.9150 119.1551 0001931  89.2335 270.9019 13.18685788142030
ONEWEB-0319             
1 49105U 21075AG  24177.47619074  .00000032  00000+0  50038-4 0  9997
2 49105  87.9171 149.5631 0001694  99.9153 260.2170 13.17639973138569
ONEWEB-0323             
1 49106U 21075AH  24177.37966772 -.00000395  00000+0 -11333-2 0  9994
2 49106  87.8940 134.3851 0001912  85.4429 274.6917 13.12444108139870
ONEWEB-0329             
1 49107U 21075AJ  24177.86394213  .00001961  00000+0  50176-2 0  9990
2 49107  87.9174 149.4888 0002004  78.9869 281.1487 13.17640629139580
ONEWEB-0330             
1 49108U 21075AK  24177.86554595  .00002180  00000+0  55816-2 0  9992
2 49108  87.9173 149.4911 0001943  86.0798 274.0555 13.17639276139627
ONEWEB-0292             
1 49186U 21083A   24177.30540555  .00000090  00000+0  21241-3 0  9991
2 49186  87.8933 103.9449 0002005  80.6303 279.5053 13.13472263136165
ONEWEB-0303             
1 49187U 21083B   24177.34003919 -.00000003  00000+0 -40616-4 0  9998
2 49187  87.9149 119.1557 0002020  86.6283 273.5080 13.18685575134849
ONEWEB-0306             
1 49188U 21083C   24177.40641721  .00000096  00000+0  20965-3 0  9999
2 49188  87.9148 119.1298 0002137  76.4564 283.6806 13.18688230134893
ONEWEB-0307             
1 49189U 21083D   24177.83308898 -.00000119  00000+0 -36115-3 0  9994
2 49189  87.8933 103.8393 0002012  59.9328 300.2001 13.13471806137527
ONEWEB-0320             
1 49190U 21083E   24177.33687359  .00000077  00000+0  16160-3 0  9992
2 49190  87.9148 119.1680 0002055  79.8000 280.3364 13.18684824134845
ONEWEB-0321             
1 49191U 21083F   24177.69325171 -.00005501  00000+0 -13565-1 0  9996
2 49191  87.9206  57.9868 0002247  73.8030 286.3351 13.20800164142872
ONEWEB-0322             
1 49192U 21083G   24177.29589200 -.00000130  00000+0 -39148-3 0  9998
2 49192  87.8936 103.9358 0002265  67.5361 292.6008 13.13469502136157
ONEWEB-0324             
1 49193U 21083H   24177.85378882  .00000073  00000+0  15320-3 0  9993
2 49193  87.9150 119.0472 0001796  79.3398 280.7936 13.18687478136215
ONEWEB-0325             
1 49194U 21083J   24177.40326100 -.00000886  00000+0 -22795-2 0  9998
2 49194  87.9154 119.1513 0001960  84.9078 275.2278 13.18688559134887
ONEWEB-0326             
1 49195U 21083K   24177.34162530  .00000072  00000+0  14924-3 0  9998
2 49195  87.9149 119.1615 0001785  96.1669 263.9666 13.18685818134869
ONEWEB-0327             
1 49196U 21083L   24177.31550092 -.00000706  00000+0 -18239-2 0  9998
2 49196  87.9151 119.1791 0002082  95.4262 264.7108 13.18684937134883
